[{"OBJECT_NAME":"UNKNOWN","OBJECT_ID":"","EPOCH":"2026-04-16T00:01:55.273152","MEAN_MOTION":13.01685055,"ECCENTRICITY":0.00305287,"INCLINATION":90.2415,"RA_OF_ASC_NODE":2.6039,"ARG_OF_PERICENTER":163.0084,"MEAN_ANOMALY":197.2069,"EPHEMERIS_TYPE":0,"CLASSIFICATION_TYPE":"U","NORAD_CAT_ID":270326,"ELEMENT_SET_NO":999,"REV_AT_EPOCH":28070,"BSTAR":0.0044753667,"MEAN_MOTION_DOT":1.39e-5,"MEAN_MOTION_DDOT":0},{"OBJECT_NAME":"UNKNOWN","OBJECT_ID":"","EPOCH":"2026-04-23T11:34:16.403520","MEAN_MOTION":12.95865075,"ECCENTRICITY":0.00268682,"INCLINATION":90.2982,"RA_OF_ASC_NODE":32.8833,"ARG_OF_PERICENTER":264.4478,"MEAN_ANOMALY":95.3577,"EPHEMERIS_TYPE":0,"CLASSIFICATION_TYPE":"U","NORAD_CAT_ID":270327,"ELEMENT_SET_NO":999,"REV_AT_EPOCH":25915,"BSTAR":-0.00024080521,"MEAN_MOTION_DOT":-6.1e-7,"MEAN_MOTION_DDOT":0},{"OBJECT_NAME":"UNKNOWN","OBJECT_ID":"","EPOCH":"2026-04-18T05:06:14.322528","MEAN_MOTION":12.95243089,"ECCENTRICITY":0.01950357,"INCLINATION":63.4558,"RA_OF_ASC_NODE":93.7592,"ARG_OF_PERICENTER":2.7126,"MEAN_ANOMALY":357.4886,"EPHEMERIS_TYPE":0,"CLASSIFICATION_TYPE":"U","NORAD_CAT_ID":270328,"ELEMENT_SET_NO":999,"REV_AT_EPOCH":27900,"BSTAR":0.00098786048,"MEAN_MOTION_DOT":2.25e-6,"MEAN_MOTION_DDOT":0},{"OBJECT_NAME":"UNKNOWN","OBJECT_ID":"","EPOCH":"2026-04-26T12:26:52.077120","MEAN_MOTION":14.37162713,"ECCENTRICITY":0.00020717,"INCLINATION":86.3926,"RA_OF_ASC_NODE":310.4926,"ARG_OF_PERICENTER":83.1494,"MEAN_ANOMALY":276.9939,"EPHEMERIS_TYPE":0,"CLASSIFICATION_TYPE":"U","NORAD_CAT_ID":270329,"ELEMENT_SET_NO":999,"REV_AT_EPOCH":27430,"BSTAR":0.00016791638,"MEAN_MOTION_DOT":5.19e-6,"MEAN_MOTION_DDOT":0},{"OBJECT_NAME":"UNKNOWN","OBJECT_ID":"","EPOCH":"2026-04-27T06:05:04.979904","MEAN_MOTION":13.42386177,"ECCENTRICITY":0.00376383,"INCLINATION":100.3131,"RA_OF_ASC_NODE":298.6671,"ARG_OF_PERICENTER":347.7432,"MEAN_ANOMALY":12.2777,"EPHEMERIS_TYPE":0,"CLASSIFICATION_TYPE":"U","NORAD_CAT_ID":270330,"ELEMENT_SET_NO":999,"REV_AT_EPOCH":26565,"BSTAR":0.0027021752,"MEAN_MOTION_DOT":1.486e-5,"MEAN_MOTION_DDOT":0},{"OBJECT_NAME":"UNKNOWN","OBJECT_ID":"","EPOCH":"2026-04-22T21:16:23.255328","MEAN_MOTION":14.58864474,"ECCENTRICITY":0.00851309,"INCLINATION":86.4358,"RA_OF_ASC_NODE":167.3448,"ARG_OF_PERICENTER":4.267,"MEAN_ANOMALY":355.9245,"EPHEMERIS_TYPE":0,"CLASSIFICATION_TYPE":"U","NORAD_CAT_ID":270332,"ELEMENT_SET_NO":999,"REV_AT_EPOCH":2448,"BSTAR":0.0031066187,"MEAN_MOTION_DOT":0.0001533,"MEAN_MOTION_DDOT":0},{"OBJECT_NAME":"UNKNOWN","OBJECT_ID":"","EPOCH":"2026-04-23T14:26:56.653440","MEAN_MOTION":14.30385267,"ECCENTRICITY":0.02051163,"INCLINATION":97.7237,"RA_OF_ASC_NODE":236.8475,"ARG_OF_PERICENTER":239.0707,"MEAN_ANOMALY":119.0174,"EPHEMERIS_TYPE":0,"CLASSIFICATION_TYPE":"U","NORAD_CAT_ID":270333,"ELEMENT_SET_NO":999,"REV_AT_EPOCH":6645,"BSTAR":0.0014505241,"MEAN_MOTION_DOT":4.702e-5,"MEAN_MOTION_DDOT":0},{"OBJECT_NAME":"UNKNOWN","OBJECT_ID":"","EPOCH":"2026-04-26T14:25:27.008256","MEAN_MOTION":14.17759657,"ECCENTRICITY":0.01809927,"INCLINATION":86.4469,"RA_OF_ASC_NODE":243.8852,"ARG_OF_PERICENTER":118.8181,"MEAN_ANOMALY":243.1312,"EPHEMERIS_TYPE":0,"CLASSIFICATION_TYPE":"U","NORAD_CAT_ID":270334,"ELEMENT_SET_NO":999,"REV_AT_EPOCH":30074,"BSTAR":0.0036624701,"MEAN_MOTION_DOT":8.797e-5,"MEAN_MOTION_DDOT":0},{"OBJECT_NAME":"UNKNOWN","OBJECT_ID":"","EPOCH":"2026-04-26T00:35:56.439456","MEAN_MOTION":14.14750118,"ECCENTRICITY":0.00820968,"INCLINATION":66.661,"RA_OF_ASC_NODE":219.9936,"ARG_OF_PERICENTER":329.9481,"MEAN_ANOMALY":29.6911,"EPHEMERIS_TYPE":0,"CLASSIFICATION_TYPE":"U","NORAD_CAT_ID":270335,"ELEMENT_SET_NO":999,"REV_AT_EPOCH":25616,"BSTAR":0.00030619317,"MEAN_MOTION_DOT":5.27e-6,"MEAN_MOTION_DDOT":0},{"OBJECT_NAME":"UNKNOWN","OBJECT_ID":"","EPOCH":"2026-04-26T12:44:12.411744","MEAN_MOTION":14.26827075,"ECCENTRICITY":0.00073465,"INCLINATION":81.2871,"RA_OF_ASC_NODE":53.6639,"ARG_OF_PERICENTER":322.6981,"MEAN_ANOMALY":37.3688,"EPHEMERIS_TYPE":0,"CLASSIFICATION_TYPE":"U","NORAD_CAT_ID":270336,"ELEMENT_SET_NO":999,"REV_AT_EPOCH":25466,"BSTAR":0.0016176424,"MEAN_MOTION_DOT":3.935e-5,"MEAN_MOTION_DDOT":0},{"OBJECT_NAME":"UNKNOWN","OBJECT_ID":"","EPOCH":"2026-04-21T09:57:19.824192","MEAN_MOTION":13.04777812,"ECCENTRICITY":0.00287005,"INCLINATION":90.1454,"RA_OF_ASC_NODE":6.8762,"ARG_OF_PERICENTER":267.146,"MEAN_ANOMALY":92.638,"EPHEMERIS_TYPE":0,"CLASSIFICATION_TYPE":"U","NORAD_CAT_ID":270337,"ELEMENT_SET_NO":999,"REV_AT_EPOCH":23493,"BSTAR":0.00085721296,"MEAN_MOTION_DOT":2.84e-6,"MEAN_MOTION_DDOT":0},{"OBJECT_NAME":"UNKNOWN","OBJECT_ID":"","EPOCH":"2026-04-20T14:11:15.709920","MEAN_MOTION":13.84252842,"ECCENTRICITY":0.01468454,"INCLINATION":99.1081,"RA_OF_ASC_NODE":69.1183,"ARG_OF_PERICENTER":186.9204,"MEAN_ANOMALY":172.9926,"EPHEMERIS_TYPE":0,"CLASSIFICATION_TYPE":"U","NORAD_CAT_ID":270338,"ELEMENT_SET_NO":999,"REV_AT_EPOCH":24492,"BSTAR":0.00050894064,"MEAN_MOTION_DOT":5.75e-6,"MEAN_MOTION_DDOT":0},{"OBJECT_NAME":"UNKNOWN","OBJECT_ID":"","EPOCH":"2026-04-23T12:15:10.431360","MEAN_MOTION":12.1614373,"ECCENTRICITY":0.0833413,"INCLINATION":83.2356,"RA_OF_ASC_NODE":208.7768,"ARG_OF_PERICENTER":344.58,"MEAN_ANOMALY":13.1204,"EPHEMERIS_TYPE":0,"CLASSIFICATION_TYPE":"U","NORAD_CAT_ID":270339,"ELEMENT_SET_NO":999,"REV_AT_EPOCH":21826,"BSTAR":0.0014931367,"MEAN_MOTION_DOT":4.47e-6,"MEAN_MOTION_DDOT":0},{"OBJECT_NAME":"UNKNOWN","OBJECT_ID":"","EPOCH":"2026-04-26T08:34:17.457600","MEAN_MOTION":13.83919358,"ECCENTRICITY":0.01456735,"INCLINATION":98.8009,"RA_OF_ASC_NODE":350.4297,"ARG_OF_PERICENTER":120.3634,"MEAN_ANOMALY":241.2017,"EPHEMERIS_TYPE":0,"CLASSIFICATION_TYPE":"U","NORAD_CAT_ID":270340,"ELEMENT_SET_NO":999,"REV_AT_EPOCH":24636,"BSTAR":0.00050867317,"MEAN_MOTION_DOT":5.74e-6,"MEAN_MOTION_DDOT":0},{"OBJECT_NAME":"UNKNOWN","OBJECT_ID":"","EPOCH":"2026-04-26T00:46:12.131040","MEAN_MOTION":12.02351217,"ECCENTRICITY":0.09266867,"INCLINATION":83.2403,"RA_OF_ASC_NODE":221.5056,"ARG_OF_PERICENTER":143.9857,"MEAN_ANOMALY":222.7438,"EPHEMERIS_TYPE":0,"CLASSIFICATION_TYPE":"U","NORAD_CAT_ID":270341,"ELEMENT_SET_NO":999,"REV_AT_EPOCH":20585,"BSTAR":-0.0017050134,"MEAN_MOTION_DOT":-4.93e-6,"MEAN_MOTION_DDOT":0},{"OBJECT_NAME":"UNKNOWN","OBJECT_ID":"","EPOCH":"2026-04-20T00:30:55.421856","MEAN_MOTION":14.22205717,"ECCENTRICITY":0.00972885,"INCLINATION":98.6794,"RA_OF_ASC_NODE":19.2453,"ARG_OF_PERICENTER":271.8866,"MEAN_ANOMALY":87.1172,"EPHEMERIS_TYPE":0,"CLASSIFICATION_TYPE":"U","NORAD_CAT_ID":270342,"ELEMENT_SET_NO":999,"REV_AT_EPOCH":24081,"BSTAR":0.0014258804,"MEAN_MOTION_DOT":3.276e-5,"MEAN_MOTION_DDOT":0},{"OBJECT_NAME":"UNKNOWN","OBJECT_ID":"","EPOCH":"2026-04-18T23:27:00.682272","MEAN_MOTION":12.45819563,"ECCENTRICITY":0.07279273,"INCLINATION":83.3989,"RA_OF_ASC_NODE":14.4961,"ARG_OF_PERICENTER":55.4958,"MEAN_ANOMALY":311.2693,"EPHEMERIS_TYPE":0,"CLASSIFICATION_TYPE":"U","NORAD_CAT_ID":270343,"ELEMENT_SET_NO":999,"REV_AT_EPOCH":20988,"BSTAR":0.0064990172,"MEAN_MOTION_DOT":2.438e-5,"MEAN_MOTION_DDOT":0},{"OBJECT_NAME":"UNKNOWN","OBJECT_ID":"","EPOCH":"2026-04-12T17:35:13.140672","MEAN_MOTION":13.06688147,"ECCENTRICITY":0.02699045,"INCLINATION":105.8419,"RA_OF_ASC_NODE":266.1089,"ARG_OF_PERICENTER":266.8212,"MEAN_ANOMALY":90.1962,"EPHEMERIS_TYPE":0,"CLASSIFICATION_TYPE":"U","NORAD_CAT_ID":270344,"ELEMENT_SET_NO":999,"REV_AT_EPOCH":21789,"BSTAR":0.001654544,"MEAN_MOTION_DOT":5.72e-6,"MEAN_MOTION_DDOT":0},{"OBJECT_NAME":"UNKNOWN","OBJECT_ID":"","EPOCH":"2026-04-26T13:26:34.387872","MEAN_MOTION":12.04131157,"ECCENTRICITY":0.09015202,"INCLINATION":83.3023,"RA_OF_ASC_NODE":225.3437,"ARG_OF_PERICENTER":334.5756,"MEAN_ANOMALY":21.3409,"EPHEMERIS_TYPE":0,"CLASSIFICATION_TYPE":"U","NORAD_CAT_ID":270345,"ELEMENT_SET_NO":999,"REV_AT_EPOCH":20340,"BSTAR":0.0015861759,"MEAN_MOTION_DOT":4.61e-6,"MEAN_MOTION_DDOT":0},{"OBJECT_NAME":"UNKNOWN","OBJECT_ID":"","EPOCH":"2026-04-17T09:21:29.526048","MEAN_MOTION":12.98413488,"ECCENTRICITY":0.00281745,"INCLINATION":90.2366,"RA_OF_ASC_NODE":355.5459,"ARG_OF_PERICENTER":190.5416,"MEAN_ANOMALY":169.5118,"EPHEMERIS_TYPE":0,"CLASSIFICATION_TYPE":"U","NORAD_CAT_ID":270346,"ELEMENT_SET_NO":999,"REV_AT_EPOCH":21047,"BSTAR":0.00029524785,"MEAN_MOTION_DOT":9.4e-7,"MEAN_MOTION_DDOT":0},{"OBJECT_NAME":"UNKNOWN","OBJECT_ID":"","EPOCH":"2026-04-27T01:48:56.815776","MEAN_MOTION":13.04828337,"ECCENTRICITY":0.00919395,"INCLINATION":82.6989,"RA_OF_ASC_NODE":241.0149,"ARG_OF_PERICENTER":67.0481,"MEAN_ANOMALY":294.0304,"EPHEMERIS_TYPE":0,"CLASSIFICATION_TYPE":"U","NORAD_CAT_ID":270347,"ELEMENT_SET_NO":999,"REV_AT_EPOCH":13886,"BSTAR":-0.00073871592,"MEAN_MOTION_DOT":-2.3e-6,"MEAN_MOTION_DDOT":0},{"OBJECT_NAME":"UNKNOWN","OBJECT_ID":"","EPOCH":"2026-04-22T16:34:27.243840","MEAN_MOTION":13.15926455,"ECCENTRICITY":0.02431308,"INCLINATION":82.6152,"RA_OF_ASC_NODE":273.6183,"ARG_OF_PERICENTER":322.109,"MEAN_ANOMALY":36.3132,"EPHEMERIS_TYPE":0,"CLASSIFICATION_TYPE":"U","NORAD_CAT_ID":270348,"ELEMENT_SET_NO":999,"REV_AT_EPOCH":10519,"BSTAR":0.011881615,"MEAN_MOTION_DOT":5.241e-5,"MEAN_MOTION_DDOT":0},{"OBJECT_NAME":"UNKNOWN","OBJECT_ID":"","EPOCH":"2026-04-19T21:35:54.400416","MEAN_MOTION":13.21105946,"ECCENTRICITY":0.00254296,"INCLINATION":82.5483,"RA_OF_ASC_NODE":168.5034,"ARG_OF_PERICENTER":200.508,"MEAN_ANOMALY":159.5026,"EPHEMERIS_TYPE":0,"CLASSIFICATION_TYPE":"U","NORAD_CAT_ID":270349,"ELEMENT_SET_NO":999,"REV_AT_EPOCH":19813,"BSTAR":0.00063827296,"MEAN_MOTION_DOT":2.74e-6,"MEAN_MOTION_DDOT":0},{"OBJECT_NAME":"UNKNOWN","OBJECT_ID":"","EPOCH":"2026-04-26T09:25:11.662176","MEAN_MOTION":2.10634909,"ECCENTRICITY":0.73308276,"INCLINATION":60.1413,"RA_OF_ASC_NODE":216.3323,"ARG_OF_PERICENTER":78.8958,"MEAN_ANOMALY":348.7714,"EPHEMERIS_TYPE":0,"CLASSIFICATION_TYPE":"U","NORAD_CAT_ID":270353,"ELEMENT_SET_NO":999,"REV_AT_EPOCH":3005,"BSTAR":0.00036425308,"MEAN_MOTION_DOT":2.04e-6,"MEAN_MOTION_DDOT":0}]
